Unnamed: 0,name,address,lat,lon
1,,600 FAIRVIEW ST  HANOVER PA 17331,39.75836,-76.98075
2,,650 FAIRVIEW DR  HANOVER PA 17331,39.75946,-76.98383
3,,1032 MUSSELMAN RD  HANOVER PA 17331,39.73446,-76.92154
4,,"50 KING ST E,  YORK PA 17401",39.9615,-76.72524
5,,"90 NEWBERRY ST N,  YORK PA 17401",39.9613,-76.73569
6,,"605 DUKE ST S,  YORK PA 17401",39.9549,-76.72094
7,,251 N BROAD ST  YORK PA 17403,39.96916,-76.72048
8,,"629 PERSHING AVE S,  YORK PA 17401",39.95288,-76.72693
9,,"368 PRINCESS ST W,  YORK PA 17401",39.95677,-76.73521
10,,"740 LOCUST ST W,  YORK PA 17401",39.95303,-76.74444
11,,"839 MARKET ST W,  YORK PA 17401",39.95666,-76.74835
12,,"800 KING ST E,  YORK PA 17403",39.96647,-76.71025
13,,415 E BOUNDARY AVE  YORK PA 17403,39.95938,-76.7164
14,,800 E KING ST  YORK PA 17403,39.96647,-76.71025
15,,350 HILL ST  YORK PA 17403,39.96599,-76.70012
16,,661 N NEWBERRY ST  YORK PA 17404,39.96873,-76.73992
17,,800 ROOSEVELT AVE  YORK PA 17404,39.96618,-76.74849
18,,334 CARLISLE AVE  YORK PA 17404,39.95667,-76.75728
19,,1059 KELLY DR  YORK PA 17404,39.97335,-76.75239
20,,"177 JACKSON ST E,  YORK PA 17401",39.95346,-76.7189
21,,1185 GETTYSBURG PIKE  DILLSBURG PA 17019,40.14142,-77.01569
22,,33 MUDDY CREEK FORKS RD  BROGUE PA 17309,39.87072,-76.48402
23,,2870 FURNACE RD  RED LION PA 17356,39.91504,-76.47072
24,,3444 STICKS RD  GLEN ROCK PA 17327,39.76337,-76.76666
25,,4631 SHAFFERS CHURCH RD  GLENVILLE PA 17329,39.78629,-76.80807
26,,4242 GREENMOUNT CHURCH RD  GLEN ROCK PA 17327,39.80803,-76.80663
27,,570 COPENHAFFER RD  YORK PA 17404,40.06011,-76.78101
28,,5675 SUSQUEHANNA TRL  MANCHESTER PA 17345,40.08996,-76.76165
29,,3700 DAVIDSBURG RD  DOVER PA 17315,39.97913,-76.8357
30,,5005 CARLISLE RD  DOVER PA 17315,40.01243,-76.85993
31,,3380 FOX RUN RD  DOVER PA 17315,39.98774,-76.82385
32,,8916 HICKORY RD  FELTON PA 17322,39.79568,-76.53442
33,,4855 BOARD RD  MOUNT WOLF PA 17347,40.068,-76.71325
34,,340 LEWISBERRY RD  NEW CUMBERLAND PA 17070,40.20856,-76.8716
35,,599 LEWISBERRY RD  NEW CUMBERLAND PA 17070,40.19,-76.89063
36,,530 BIG SPRING RD  NEW CUMBERLAND PA 17070,40.18563,-76.83899
37,,292 SPANGLER MILL RD  NEW CUMBERLAND PA 17070,40.19538,-76.89088
38,,8 ORCHARD RD  NEW PARK PA 17352,39.77019,-76.47108
39,,"1048 MOUNTAIN RD S,  DILLSBURG PA 17019",40.0797,-77.07393
40,,1199 PORTERS RD  SPRING GROVE PA 17362,39.82884,-76.89649
41,,OLD CHURCH RD  YORK PA 17406,40.00302,-76.61802
42,,44 WALNUT SPRINGS LN  YORK PA 17406,40.0129,-76.58375
43,,3336 BRIDGEVIEW RD  STEWARTSTOWN PA 17363,39.75891,-76.62327
44,,116 NASHVILLE BLVD  SPRING GROVE PA 17362,39.8978,-76.855
45,,5101 DARLINGTON RD  YORK PA 17408,39.91984,-76.83971
46,,3576 DELTA RD  AIRVILLE PA 17302,39.83065,-76.4041
47,,4120 DELTA RD  AIRVILLE PA 17302,39.80983,-76.37628
48,,4845 E PROSPECT RD  YORK PA 17406,39.97246,-76.56433
49,,720 COOL CREEK RD  WRIGHTSVILLE PA 17368,39.99865,-76.53988
50,,2425 CRALEY RD  WRIGHTSVILLE PA 17312,39.94216,-76.52277
51,,3118 N GEORGE ST EXTD  EMIGSVILLE PA 17318,40.01334,-76.73114
52,,330 EMIG RD  YORK PA 17406,40.01577,-76.72206
53,,3200 FARMTRAIL RD  YORK PA 17406,40.02096,-76.75358
54,,2215 BRANDYWINE LN  YORK PA 17404,39.99532,-76.75633
55,,1215 CHURCH RD  YORK PA 17404,39.99372,-76.7801
56,,1655 ROOSEVELT AVE  YORK PA 17408,39.9842,-76.76422
57,,5191 WOOL MILL RD  GLENVILLE PA 17329,39.75116,-76.84806
58,,245 W SIDDONSBURG RD  DILLSBURG PA 17019,40.13957,-76.97999
59,,355 CHURCH RD  ETTERS PA 17319,40.13298,-76.78833
60,,570 CASSEL RD  MANCHESTER PA 17345,40.10018,-76.7203
61,,1405 SEVEN VALLEYS RD  YORK PA 17408,39.89175,-76.78541
62,,5671 LISCHEYS CHURCH RD  SPRING GROVE PA 17362,39.85331,-76.87592
63,,13081 HIGH POINT RD  FELTON PA 17322,39.82628,-76.60052
64,,3241 CHURCH RD  THOMASVILLE PA 17364,39.9298,-76.92519
65,,5 PENDYRUS ST  DELTA PA 17314,39.73129,-76.3196
66,,920 BECK MILL RD  HANOVER PA 17331,39.77422,-76.98152
67,,204 CLOVER LN  HANOVER PA 17331,39.78062,-76.96714
68,,20 WAYNE AVE  HANOVER PA 17331,39.79405,-76.96923
69,,55 ALBRIGHT DR  HANOVER PA 17331,39.79732,-76.94663
70,,"11505 SUSQUEHANNA TRL S,  GLEN ROCK PA 17327",39.81233,-76.684
71,,"74 FORREST AVE E,  SHREWSBURY PA 17361",39.76827,-76.67466
72,,1775 E MARKET ST  YORK PA 17402,39.97366,-76.69243
73,,"2045 SHERMAN ST N,  YORK PA 17406",39.99303,-76.70547
74,,1401 WILLIAMS RD  YORK PA 17402,39.99063,-76.66189
75,,2985 EAST PROSPECT RD  YORK PA 17402,39.96092,-76.65132
76,,295 MILLS ST  YORK PA 17402,39.97471,-76.66627
77,,1054 RIDGEWOOD RD  YORK PA 17406,39.99116,-76.70071
78,,4075 EAST MARKET ST  YORK PA 17402,39.99503,-76.63586
79,,9211 S SUSQUEHANNA TRL  SEVEN VALLEYS PA 17360,39.83981,-76.70669
80,,501 RATHTON RD  YORK PA 17403,39.95011,-76.70687
81,,1907 HOLLYWOOD DR  YORK PA 17403,39.94641,-76.69239
82,,344 CARLISLE AVE  YORK PA 17404,39.95867,-76.75167
83,,3345 ROSSTOWN RD  WELLSVILLE PA 17365,40.06571,-76.91553
84,,14 CREEK RD  EAST BERLIN PA 17316,39.9468,-76.94424
85,,300 E BERLIN RD  YORK PA 17408,39.951,-76.78117
86,,2190 CARLISLE RD  YORK PA 17408,39.97761,-76.79681
87,,1030 CARLISLE RD  YORK PA 17404,39.96279,-76.76584
88,,250 TRINITY RD  YORK PA 17408,39.93129,-76.80408
89,,334 CARLISLE AV  YORK PA 17404,39.95667,-76.75728
90,,3920 E PROSPECT RD  YORK PA 17406,39.9605,-76.61252
91,,105 SPRINGVALE RD  RED LION PA 17356,39.89101,-76.59262
92,,94 SCHOOL HOUSE LN  WINDSOR PA 17366,39.91804,-76.58192
93,,2650 FREYSVILLE RD  RED LION PA 17356,39.92705,-76.60681
94,,2530 CAPE HORN RD  YORK PA 17356,39.9419,-76.64858
95,,970 CAPE HORN RD  YORK PA 17402,39.95437,-76.65282
96,,3050 CAPE HORN RD  RED LION PA 17356,39.92276,-76.63468
97,,190 OAK RD  DALLASTOWN PA 17313,39.91486,-76.67255
98,,1009 BLYMIRE RD  DALLASTOWN PA 17313,39.88641,-76.64736
99,,20 DAIRYLAND SQUARE  DALLASTOWN PA 17313,39.89507,-76.62344
100,,2523 PINE GROVE RD  YORK PA 17403,39.91317,-76.70773
101,,255 REYNOLDS MILL RD  YORK PA 17403,39.90381,-76.72526
102,,2500 PINE GROVE RD  YORK PA 17403,39.91417,-76.70578
103,,397 TYLER RUN RD  YORK PA 17403,39.93351,-76.69568
104,,25 OAK ST  YORK PA 17402,39.92062,-76.68282
105,,50 SCHOOL ST  YORK PA 17402,39.91558,-76.68228
106,,20 GOTHAM PL  RED LION PA 17356,39.90782,-76.6178
107,,6881 CHURCH RD  FELTON PA 17322,39.81862,-76.57168
108,,"50 SCHOOL PL S,  DALLASTOWN PA 17313",39.90066,-76.64962
109,,175 E BROAD ST  DALLASTOWN PA 17313,39.9021,-76.63581
110,,MAIN ST & BUNKER HILL AVE  DELTA PA 17314,39.72612,-76.3288
111,,1 N 2ND ST  DILLSBURG PA 17019,40.11088,-77.03751
112,,30 E CANAL RD  DOVER PA 17315,40.00248,-76.84847
113,,PO BOX 334  EAST PROSPECT PA 17317,39.97089,-76.52426
114,,S MARKET ST  FAWN GROVE PA 17321,39.72467,-76.45199
115,,61 MAIN ST  FELTON PA 17322,39.85472,-76.56572
116,,202 S CHESTNUT ST  DILLSBURG PA 17019,40.10705,-77.03252
117,,59 WATER ST  GLEN ROCK PA 17327,39.79398,-76.73225
118,,53 N YORK ST  ETTERS PA 17319,40.15399,-76.7502
119,,163 E MARKET ST  YORK PA 17406,39.96379,-76.72414
120,,603 WILSON AVE  HANOVER PA 17331,39.81668,-76.96717
121,,210 E CHESTNUT ST  HANOVER PA 17331,39.80337,-76.9828
122,,861 CARLISLE ST  HANOVER PA 17331,39.813,-76.99034
123,,200 FREDERICK ST  HANOVER PA 17331,39.79858,-76.98523
124,,400 YORK ST  HANOVER PA 17331,39.79922,-76.97409
125,,1 S MAIN ST  YORK PA 17407,39.87968,-76.70953
126,,48 BALTIMORE ST  CODORUS PA 17311,39.81442,-76.83872
127,,"105 FRONT ST W,  LEWISBERRY PA 17339",40.13421,-76.86142
128,,MILL ST  LOGANVILLE PA 17342,39.84842,-76.71204
129,,201 YORK ST  MANCHESTER PA 17345,40.05689,-76.72298
130,,54 CENTER ST  MOUNT WOLF PA 17347,40.06409,-76.707
131,,150 E MAIN ST  NEW FREEDOM PA 17349,39.73701,-76.69664
132,,E GEORGE ST  YORK NEW SALEM PA 17371,39.90241,-76.78685
133,,350 E SIXTH AVE  YORK PA 17404,39.97722,-76.72759
134,,2 E MAIN ST  RAILROAD PA 17355,39.73807,-76.70205
135,,"201 BROADWAY W,  RED LION PA 17356",39.89933,-76.60873
136,,"131 BROADWAY W,  RED LION PA 17356",39.89984,-76.6079
137,,S CHARLES ST  RED LION PA 17356,39.89811,-76.60548
138,,7 MAPLE ST  SEVEN VALLEYS PA 17360,39.85232,-76.76951
139,,35 W RAILROAD AVE  SHREWSBURY PA 17361,39.76716,-76.68128
140,,ONE CAMPUS AVE  SPRING GROVE PA 17362,39.88251,-76.86556
141,,6 N MAIN ST  STEWARTSTOWN PA 17363,39.7542,-76.59185
142,,95 COMMUNITY ST  WELLSVILLE PA 17365,40.0525,-76.93833
143,,1341 W MARKET ST  YORK PA 17404,39.95413,-76.75825
144,,2 E MAIN ST  WINDSOR PA 17366,39.91511,-76.58
145,,13081 HIGH POINT RD  FELTON PA 17345,39.82628,-76.60052
146,,601 WATER ST  WRIGHTSVILLE PA 17368,40.02129,-76.52373
147,,205 SECOND ST N  WRIGHTSVILLE PA 17368,40.02698,-76.53074
148,,60 E GEORGE ST  DALLASTOWN PA 17313,39.90568,-76.62942
149,,42 MAIN ST  YORK PA 17406,39.97614,-76.58474
150,,100 S FRONT ST  YORK HAVEN PA 17370,40.10702,-76.71395
