name,address,lat,lon
,41 THORNTON RD  GLEN MILLS PA 19342,39.88701,-75.51931
,601 SMITHBRIDGE RD  GLEN MILLS PA 19342,39.86899,-75.51402
,245 BETHEL RD  GLEN MILLS PA 19342,39.86627,-75.50645
,200 MARIS GROVE WAY  GLEN MILLS PA 19342,39.87918,-75.53246
,4 WESTTOWN RD  THORNTON PA 19373,39.90651,-75.53709
,4 WESTTOWN THORNTON RD  THORNTON PA 19373,39.90651,-75.53648
,3280 FOULK RD  GARNET VALLEY PA 19060,39.84463,-75.48645
,1082 BETHEL RD  GARNET VALLEY PA 19060,39.85372,-75.48863
,205 S PROVIDENCE RD  WALLINGFORD PA 19086,39.89459,-75.37201
,100 GARRETT RD  UPPER DARBY PA 19082,39.95991,-75.26304
,130 KING OF PRUSSIA RD  WAYNE PA 19087,40.03923,-75.35944
,1 N WOODLAWN AVE  ALDAN PA 19018,39.92245,-75.28874
,900 TRYENS RD  ASTON PA 19014,39.87066,-75.44239
,257 CONCORD RD  ASTON PA 19014,39.8684,-75.42714
,1362 NAAMANS CREEK RD  GARNET VALLEY PA 19060,39.84039,-75.49646
,3737 FOULK RD  GARNET VALLEY PA 19060,39.83796,-75.49623
,1 COEBOURN BLVD  BROOKHAVEN PA 19015,39.87378,-75.394
,1 COEBOURN RD  BROOKHAVEN PA 19015,39.87378,-75.394
,1150 ENGLE ST  CHESTER PA 19013,39.84188,-75.39104
,201 BRIDGEWATER RD  BROOKHAVEN PA 19015,39.85853,-75.39128
,1133 POWELL RD  BROOKHAVEN PA 19015,39.85706,-75.38991
,1416 MARKET ST  LINWOOD PA 19061,39.82499,-75.42162
,1405 MEETINGHOUSE RD & FIRST AVE  BOOTHWYN PA 19061,39.83022,-75.44054
,1950 MARKET ST  LINWOOD PA 19061,39.83139,-75.42441
,8500 FUREY RD  ASTON PA 19014,39.85723,-75.45996
,4300 NAAMANS CREEK RD  BOOTHWYN PA 19061,39.834,-75.46777
,1661 MILL RD  BOOTHWYN PA 19061,39.84021,-75.44055
,357 E BERKLEY AVE  CLIFTON HEIGHTS PA 19018,39.93054,-75.28769
,30 S SPRINGFIELD RD  CLIFTON HEIGHTS PA 19018,39.92852,-75.29635
,CHESTER AVE  CLIFTON HEIGHTS PA 19018,39.92558,-75.2939
,MACDADE BLVD & MILDRED AVE  COLLINGDALE PA 19023,39.91508,-75.26988
,800 MACDADE BLVD  COLLINGDALE PA 19023,39.91087,-75.27776
,CLIFTON & BEDFORD AVE  COLLINGDALE PA 19023,39.91469,-75.28021
,800 MAC DADE BLVD  COLLINGDALE PA 19023,39.91087,-75.27776
,510 CLIFTON AVE  COLLINGDALE PA 19023,39.91432,-75.28044
,501 SHARON AVE  COLLINGDALE PA 19023,39.91617,-75.27771
,211 PINE ST  COLWYN PA 19023,39.91238,-75.25242
,576 CONCORD RD  GLEN MILLS PA 19342,39.87861,-75.50614
,43 THORNTON RD  GLEN MILLS PA 19342,39.88758,-75.51784
,2300 FOX HILL CIR  GLEN MILLS PA 19342,39.86603,-75.52457
,1110 MAIN ST  DARBY PA 19023,39.92147,-75.26452
,1101 MAIN ST  DARBY PA 19023,39.92174,-75.26367
,121 SUMMIT ST  DARBY PA 19023,39.92003,-75.25657
,1020 RIDGE AVE  DARBY PA 19023,39.92173,-75.26202
,224 S 6TH ST  DARBY PA 19023,39.91479,-75.25696
,1085 HOOK RD  SHARON HILL PA 19079,39.8984,-75.26726
,801 W ASHLAND AVE  GLENOLDEN PA 19036,39.90968,-75.29652
,4611 BURMONT RD  DREXEL HILL PA 19026,39.95308,-75.31576
,4770 DREXELBROOK DR  DREXEL HILL PA 19026,39.94614,-75.31011
,3830 GARRETT RD  DREXEL HILL PA 19026,39.94357,-75.29758
,600 BURMONT RD  DREXEL HILL PA 19026,39.94726,-75.30336
,4700 DREXELBROOK DR  DREXEL HILL PA 19026,39.9453,-75.31407
,3422 DENNISON AVE  DREXEL HILL PA 19026,39.93607,-75.28851
,199 WESTBROOK DR  CLIFTON HEIGHTS PA 19018,39.93005,-75.30764
,409 ASHLAND AVE  SECANE PA 19018,39.91864,-75.30509
,3200 STATE RD  DREXEL HILL PA 19026,39.95466,-75.29926
,3001 STATE RD  DREXEL HILL PA 19026,39.95678,-75.29726
,2601 BOND AVE  DREXEL HILL PA 19026,39.9611,-75.29831
,76 SOUTH STATE RD  UPPER DARBY PA 19082,39.96231,-75.27338
,8301 WEST CHESTER PIKE  UPPER DARBY PA 19082,39.96723,-75.28136
,601 N LANSDOWNE AVE  DREXEL HILL PA 19026,39.95734,-75.285
,1400 GARRETT RD  UPPER DARBY PA 19082,39.95474,-75.2716
,501 BYWOOD AVE  UPPER DARBY PA 19082,39.95923,-75.26655
,330 AVON RD  UPPER DARBY PA 19082,39.95616,-75.26773
,337 RIVERVIEW AVE  DREXEL HILL PA 19026,39.94707,-75.29065
,350 HARRISON AVE  UPPER DARBY PA 19082,39.95355,-75.2536
,201 S 69TH ST  UPPER DARBY PA 19082,39.95634,-75.25754
,6839 CHESTNUT ST  UPPER DARBY PA 19082,39.95965,-75.25707
,326 WATKINS ST  UPPER DARBY PA 19082,39.95279,-75.25442
,326 WATKINS AVE  UPPER DARBY PA 19082,39.95279,-75.25442
,7051 RUSKIN LN  UPPER DARBY PA 19082,39.95116,-75.25848
,401 EMERSON AVE  LANSDOWNE PA 19050,39.94566,-75.26363
,20 S 69TH ST  UPPER DARBY PA 19082,39.96104,-75.2591
,248 LONG LN  UPPER DARBY PA 19082,39.9555,-75.26435
,7000 WALNUT ST  UPPER DARBY PA 19082,39.95631,-75.25916
,155 LEXINGTON AVE  EAST LANSDOWNE PA 19050,39.94541,-75.26171
,1401 E 9TH ST  EDDYSTONE PA 19022,39.85983,-75.34117
,1000 GRADYVILLE RD  GRADYVILLE PA 19039,39.946,-75.46696
,1223 MIDDLETOWN RD  GRADYVILLE PA 19039,39.94012,-75.46191
,500 PRIMOS AVE  FOLCROFT PA 19032,39.89753,-75.27851
,799 SCHOOL LN  FOLCROFT PA 19032,39.89014,-75.28151
,150 S MAC DADE BLVD  GLENOLDEN PA 19036,39.90382,-75.29617
,153 N EAGLE RD  HAVERTOWN PA 19083,39.97614,-75.3183
,201 S MANOA RD  HAVERTOWN PA 19083,39.96877,-75.31999
,MANOA RD & WILSON RD  HAVERTOWN PA 19083,39.97243,-75.3124
,1701 DARBY RD  HAVERTOWN PA 19083,39.9829,-75.30541
,9000 PARKVIEW DR  HAVERFORD PA 19041,39.99331,-75.34376
,1400 LAWRENCE RD  HAVERTOWN PA 19083,39.98235,-75.32213
,800 COOPERTOWN RD  BRYN MAWR PA 19010,40.0093,-75.32746
,800 COOPERTOWN RD  HAVERFORD PA 19041,40.0093,-75.32746
,630 LORAINE ST  ARDMORE PA 19003,39.9973,-75.30009
,1014 DARBY RD  HAVERTOWN PA 19083,39.97596,-75.3041
,200 MILL RD  HAVERTOWN PA 19083,39.98356,-75.30195
,400 ALLSTON RD  HAVERTOWN PA 19083,39.9757,-75.29831
,100 EDMONDS AVE  HAVERTOWN PA 19083,39.96388,-75.31102
,541 ROYAL AVE  HAVERTOWN PA 19083,39.96437,-75.32213
,84 S LANSDOWNE AVE  LANSDOWNE PA 19050,39.93559,-75.27201
,100 GREEN AVE  LANSDOWNE PA 19050,39.94572,-75.27169
,161 ARDMORE AVE  LANSDOWNE PA 19050,39.94244,-75.28067
,197 E PLUMSTEAD AVE  LANSDOWNE PA 19050,39.95062,-75.26861
,7TH & MARKET ST  MARCUS HOOK PA 19061,39.8173,-75.41522
,35 N MALIN RD  BROOMALL PA 19008,39.98599,-75.3659
,815 PAXON HOLLOW RD  BROOMALL PA 19008,39.95609,-75.3649
,220 LAWRENCE RD  BROOMALL PA 19008,39.97145,-75.34479
,2979 PENNVIEW AVE & HIGHLAND AVE  BROOMALL PA 19008,39.97621,-75.38029
,2201 SPROUL RD & NEW ARDMORE AVE  BROOMALL PA 19008,39.97178,-75.36044
,2201 SPROUL  RD & NEW ARDMORE AVE  BROOMALL PA 19008,39.97178,-75.36044
,301 N JACKSON ST  MEDIA PA 19063,39.92081,-75.3879
,425 S NEW MIDDLETOWN RD  MEDIA PA 19063,39.89556,-75.40438
,309 S OLD MIDDLETOWN RD  MEDIA PA 19063,39.90413,-75.40652
,122 S PENNELL RD  MEDIA PA 19063,39.90474,-75.44064
,468 N MIDDLETOWN RD  MEDIA PA 19063,39.9259,-75.44512
,27 N PENNELL RD  LIMA PA 19037,39.91412,-75.43929
,11 PARK AVE  UPPER DARBY PA 19082,39.96533,-75.28015
,500 HIGHLAND AVE  MORTON PA 19070,39.91133,-75.32213
,120 MEDIA LINE RD  NEWTOWN SQUARE PA 19073,39.97923,-75.38527
,28 MEDIA LINE RD  NEWTOWN SQUARE PA 19073,39.98235,-75.38039
,16TH & AMOSLAND RD  PROSPECT PARK PA 19076,39.89417,-75.30501
,10 W CLEVELAND AVE  NORWOOD PA 19074,39.89183,-75.2976
,558 SENECA AVE  NORWOOD PA 19074,39.8852,-75.29721
,109 E AMOSLAND RD  NORWOOD PA 19074,39.88785,-75.2914
,107 W ROLAND RD  PARKSIDE PA 19015,39.86472,-75.37733
,2ND & LAFAYETTE AVE  PROSPECT PARK PA 19076,39.89831,-75.31129
,720 MARYLAND AVE  PROSPECT PARK PA 19076,39.88809,-75.30837
,200 S PROVIDENCE RD  WALLINGFORD PA 19086,39.89499,-75.37018
,521 E BALTIMORE PIKE  MEDIA PA 19063,39.91539,-75.37967
,410 MOORE RD  WALLINGFORD PA 19086,39.88175,-75.37428
,939 N PROVIDENCE RD  MEDIA PA 19063,39.9308,-75.38735
,1900 N PROVIDENCE RD  MEDIA PA 19063,39.94483,-75.39883
,130 KING OF PRUSSIA RD  RADNOR PA 19087,40.03923,-75.35944
,20 MATSONFORD RD  WAYNE PA 19087,40.04736,-75.36127
,114 S WAYNE AVE  WAYNE PA 19087,40.04264,-75.38824
,114 W WAYNE AVE  WAYNE PA 19087,40.04284,-75.38899
,695 CLYDE RD  BRYN MAWR PA 19010,40.00804,-75.36207
,301 IVEN AVE  WAYNE PA 19087,40.03633,-75.37294
,FREE & DUPONT ST  RIDLEY PARK PA 19078,39.87977,-75.32934
,FREE & DUPONT STS  RIDLEY PARK PA 19078,39.87977,-75.32934
,1195 HAVERFORD RD  CRUM LYNNE PA 19022,39.8727,-75.33844
,500 NORTH LN  RIDLEY PARK PA 19078,39.86995,-75.31452
,228 FAIRVIEW RD  WOODLYN PA 19094,39.87561,-75.34371
,1097 7TH AVE  SWARTHMORE PA 19081,39.88515,-75.34427
,1847 CONSTITUTION AVE BLD 1  WOODLYN PA 19094,39.87251,-75.35389
,801 MORTON AVE  FOLSOM PA 19033,39.89039,-75.33384
,1 FATIMA DR  SECANE PA 19018,39.90677,-75.30564
,2545 FRANKLIN AVE  SECANE PA 19018,39.91335,-75.3107
,794 MILMONT AVE  SWARTHMORE PA 19081,39.89064,-75.34083
,FORREST AND BELMONT AVE  MILMONT PARK PA 19033,39.88009,-75.337
,620 CHESTER PIKE  RIDLEY PARK PA 19078,39.87829,-75.31462
,SCHOOL LN & COLSON RD  WOODLYN PA 19094,39.87792,-75.34154
,411 SUTTON AVE  FOLSOM PA 19033,39.89638,-75.31894
,4TH & TASKER AVE  FOLSOM PA 19033,39.89584,-75.31914
,AMOSLAND RD  MORTON PA 19070,39.90311,-75.31898
,ROSE VALLEY RD  MOYLAN PA 19065,39.90074,-75.38808
,212 UNITY TER  RUTLEDGE PA 19070,39.90191,-75.32876
,300 CALCON HOOK RD  SHARON HILL PA 19079,39.90785,-75.26869
,KENNY AVE & COATES ST  SHARON HILL PA 19079,39.90923,-75.26972
,50 POWELL RD  SPRINGFIELD PA 19064,39.93162,-75.32833
,49 W LEAMY AVE  SPRINGFIELD PA 19064,39.92838,-75.337
,468 E THOMSON AVE  SPRINGFIELD PA 19064,39.91641,-75.3393
,49 WEST LEAMY AVE  SPRINGFIELD PA 19064,39.92838,-75.337
,1001 OLD SPROUL RD  SPRINGFIELD PA 19064,39.94135,-75.34853
,CLAREMONT RD & HILLVIEW DR  SPRINGFIELD PA 19064,39.93955,-75.32281
,400 W SPROUL RD  SPRINGFIELD PA 19064,39.92591,-75.35078
,400 W SPROUL RD  SPRINGIELD PA 19064,39.92591,-75.35078
,100 COLLEGE AVE  SWARTHMORE PA 19081,39.90531,-75.34682
,99 WANAMAKER AVE  ESSINGTON PA 19029,39.86195,-75.29995
,629 N GOVERNOR PRINTZ BLVD  ESSINGTON PA 19029,39.86759,-75.29349
,1002 CHESTNUT ST  TRAINER PA 19061,39.83221,-75.40723
,AUBURN DR & WILLOW WAY  UPLAND PA 19015,39.85408,-75.3833
,1000 BELL AVE  YEADON PA 19050,39.92676,-75.25146
,900 BAILY RD  YEADON PA 19050,39.93676,-75.25189
,600 CYPRESS RD  YEADON PA 19050,39.93714,-75.25037
,403 E 24TH ST  CHESTER PA 19013,39.86803,-75.36426
,143 E ELKINGTON AVE  CHESTER PA 19013,39.86837,-75.37334
,17TH & CHESTNUT ST  CHESTER PA 19013,39.8633,-75.35814
,1300 PROVIDENCE AVE  CHESTER PA 19013,39.8582,-75.36096
,900 JOHNSON ST  CHESTER PA 19013,39.85886,-75.34906
,ONE 4TH ST  CHESTER PA 19013,39.84729,-75.35947
,200 W 9TH ST  CHESTER PA 19013,39.85056,-75.36727
,525 W 3RD ST  CHESTER PA 19013,39.8431,-75.3665
,315 EDWARDS ST  CHESTER PA 19013,39.83862,-75.37943
,1350 9TH ST  CHESTER PA 19013,39.84459,-75.38029
,1701 W 7TH ST  CHESTER PA 19013,39.84127,-75.3822
,620 ENGLE ST  CHESTER PA 19013,39.83794,-75.38762
,2609 W 4TH ST  CHESTER PA 19013,39.83333,-75.38972
,721 HAYES ST  CHESTER PA 19013,39.83635,-75.39319
,3001 W 13TH ST.  CHESTER PA 19013,39.83732,-75.39932
,2730 BETHEL RD  CHESTER PA 19013,39.84413,-75.40156
,3001 W 13TH ST  CHESTER PA 19013,39.83732,-75.39932
