name,address,lat,lon
,1202 AG. CENTER DR  POTTSVILLE PA 17901,40.66339,-76.22348
,27 MUNICIPAL RD  NEW RINGGOLD PA 17960,40.75034,-75.90127
,10 MUNICIPAL RD  SCHUYLKILL HAVEN PA 17972,40.59661,-76.21709
,35 N 9TH ST  ASHLAND PA 17921,40.783,-76.34272
,2400 CENTER ST  ASHLAND PA 17921,40.77961,-76.3578
,195 WATER ST  CUMBOLA PA 17930,40.71329,-76.13582
,46 PHOENIX PARK RD  LLEWELLYN PA 17944,40.67523,-76.28092
,147 N 7TH ST  FRACKVILLE PA 17931,40.78472,-76.24349
,2 FOUNTAIN ST  ASHLAND PA 17921,40.77023,-76.32555
,409 MAIN ST  LAVELLE PA 17943,40.76384,-76.38044
,4 and B ST  GIRARDVILLE PA 17935,40.79359,-76.27909
,8 CLOVER RD  POTTSVILLE PA 17901,40.71946,-76.27616
,14 WATER LN  POTTSVILLE PA 17901,40.69866,-76.28169
,1 BIRCH & BEECH STS  DELANO PA 18220,40.83979,-76.0714
,593 PT CARBON-ST CLAIR HWY  POTTSVILLE PA 17901,40.7056,-76.17612
,130 E FRACK ST  FRACKVILLE PA 17931,40.78565,-76.22822
,225 S BALLIET ST  FRACKVILLE PA 17931,40.78145,-76.23036
,2315 HIGH RD  MAHANOY PLANE PA 17949,40.79477,-76.24263
,4 AND B STS  GIRARDVILLE PA 17935,40.79359,-76.27909
,E PLANE & OTTO ST  GORDON PA 17936,40.74973,-76.34171
,700 W MAHANOY ST  MAHANOY CITY PA 17948,40.80956,-76.14891
,138 W CENTRE ST  MAHANOY CITY PA 17948,40.81207,-76.14355
,239 E PINE ST  MAHANOY CITY PA 17948,40.81248,-76.13865
,738 E MAHANOY ST  MAHANOY CITY PA 17948,40.81261,-76.1332
,1010 W CENTRE ST  MAHANOY CITY PA 17948,40.80986,-76.15385
,29 WASHINGTON ST  MIDDLEPORT PA 17953,40.7282,-76.08516
,N DELAWARE AVE & CARBON ST  MINERSVILLE PA 17954,40.69198,-76.25711
,3 SOUTH ST  MINERSVILLE PA 17954,40.6898,-76.25944
,511 SUNBURY ST  MINERSVILLE PA 17954,40.69194,-76.26633
,500 LINE ST  MINERSVILLE PA 17954,40.68732,-76.26098
,248-250 BROAD ST  ST CLAIR PA 17970,40.71901,-76.20036
,15 MCCOMB ST  NEW PHILADELPHIA PA 17959,40.7209,-76.11658
,MAIN ST  SELTZER PA 17974,40.69588,-76.23562
,506 MAPLE AVE  MARLIN PA 17951,40.67749,-76.24144
,239 W BACON ST  PALO ALTO PA 17901,40.68484,-76.17968
,142 E BACON ST  PALO ALTO PA 17901,40.68802,-76.17129
,WASHINGTON & PIKE ST  PORT CARBON PA 17965,40.69547,-76.16761
,WASHINGTON & PIKE STS  PORT CARBON PA 17965,40.69547,-76.16761
,28 WOOD ST  TREMONT PA 17981,40.65061,-76.34701
,945 BARNESVILLE DR  BARNESVILLE PA 18214,40.81783,-76.06202
,16 S 3RD ST  ST CLAIR PA 17970,40.71862,-76.19098
,115 N MILL ST  ST CLAIR PA 17970,40.72166,-76.18963
,250 E HANCOCK ST  ST CLAIR PA 17970,40.72147,-76.1892
,320 E LLOYD ST  SHENANDOAH PA 17976,40.82194,-76.19668
,33 S MAIN ST  SHENANDOAH PA 17976,40.81974,-76.20063
,105 S JARDIN ST  SHENANDOAH PA 17976,40.81908,-76.2019
,115 W CENTER ST  SHENANDOAH PA 17976,40.82036,-76.20316
,742 W CENTER ST  SHENANDOAH PA 17976,40.81812,-76.21174
,300 TURKEY RUN  SHENANDOAH PA 17976,40.80814,-76.20327
,209 S GREEN ST  FRACKVILLE PA 17931,40.78387,-76.22172
,190 PENNSYLVANIA AVE  SHENANDOAH PA 17976,40.82527,-76.20836
,166 MOUNT OLIVE BLVD  SHENANDOAH PA 17976,40.80662,-76.25671
,131 S FRONT ST  AUBURN PA 17922,40.59835,-76.091
,221 3RD ST  COALDALE PA 18218,40.82306,-75.90481
,150 W PHILLIPS ST  COALDALE PA 18218,40.82135,-75.91026
,1 ASH RD  ORWIGSBURG PA 17961,40.62126,-76.05573
,35 W CATAWISSA ST  NEW RINGGOLD PA 17960,40.67987,-76.0239
,10 E ELM ST  SHEPPTON PA 18248,40.89637,-76.11659
,5TH ST  KELAYRES PA 18231,40.90105,-76.00272
,1 FIREHOUSE RD  LANDINGVILLE PA 17942,40.62674,-76.12516
,51 N HANCOCK ST  MCADOO PA 18237,40.90364,-75.99446
,110 W BLAINE ST  MCADOO PA 18237,40.90216,-75.99543
,25 N RAILROAD ST  NEW RINGGOLD PA 17960,40.6883,-75.99954
,185 MAHANOY ST  NUREMBERG PA 18241,40.94007,-76.17174
,PENN ST  PORT CLINTON PA 19549,40.58379,-76.0256
,104 W MAIN ST  RINGTOWN PA 17967,40.85816,-76.23284
,45 MAHANOY AVE  HOMETOWN PA 18252,40.82215,-75.98434
,45 MAHANOY AVE  TAMAQUA PA 18252,40.82215,-75.98434
,85 WALNUT ST  MARY D PA 17952,40.76911,-76.03825
,22 LAFAYETTE ST  TAMAQUA PA 18252,40.79835,-75.97085
,553-555 E BROAD ST  TAMAQUA PA 18252,40.79839,-75.95973
,320 E BROAD ST  TAMAQUA PA 18252,40.79687,-75.96478
,325 VAN GELDER ST  TAMAQUA PA 18252,40.79467,-75.97649
,155 ZION GROVE RD  RINGTOWN PA 17967,40.86341,-76.23608
,9 TOWNSHIP RD  TAMAQUA PA 18252,40.76361,-76.00236
,95 MUNICIPAL RD  ORWIGSBURG PA 17961,40.63532,-76.05691
,184 ST. PETERS RD  TAMAQUA PA 18252,40.77998,-75.86624
,868 DEEP CREEK RD  ASHLAND PA 17921,40.70199,-76.43654
,68 S SILLYMAN ST  CRESSONA PA 17929,40.63161,-76.19316
,247 ZION CHURCH RD  PITMAN PA 17964,40.72372,-76.48973
,BUCK RUN  MINERSVILLE PA 17954,40.69002,-76.26239
,1 W CENTER ST  DONALDSON PA 17981,40.63718,-76.40502
,720 CHESTNUT ST  HEGINS PA 17938,40.6508,-76.4969
,1007 W MAPLE ST  VALLEY VIEW PA 17983,40.64467,-76.53776
,2206 E MAIN ST  SACRAMENTO PA 17968,40.6355,-76.58443
,918 1ST ST  MECHANICSVILLE PA 17901,40.69068,-76.18366
,122 MAIN ST  POTTSVILLE PA 17901,40.69481,-76.23748
,1076 W MARKET ST  SCHUYLKILL HAVEN PA 17972,40.6497,-76.13634
,303 MANHEIM RD  POTTSVILLE PA 17901,40.64527,-76.16257
,300 GROVE ST  ORWIGSBURG PA 17961,40.6576,-76.09494
,1 ORCHARD ST  PINE GROVE PA 17963,40.55203,-76.38435
,1 VETERANS MEMORIAL DR.  PINE GROVE PA 17963,40.54607,-76.38053
,175 OAK GROVE RD  PINE GROVE PA 17963,40.55415,-76.41149
,309 W WICONISCO ST  MUIR PA 17957,40.5916,-76.52292
,517 W GRAND AVE  TOWER CITY PA 17980,40.5872,-76.57063
,420 N CENTRE ST  POTTSVILLE PA 17901,40.68822,-76.19686
,SCHUYLKILL HEALTH  POTTSVILLE PA 17901,40.71408,-76.1865
,323 W NORWEGIAN ST  POTTSVILLE PA 17901,40.68395,-76.19717
,9 & HOWARD AVE  POTTSVILLE PA 17901,40.67878,-76.20516
,216 N 12TH ST  POTTSVILLE PA 17901,40.68282,-76.20513
,337 PEACOCK ST  POTTSVILLE PA 17901,40.69191,-76.2052
,943 FAIRMOUNT AVE  POTTSVILLE PA 17901,40.689,-76.20841
,N CENTRE ST & LAUREL BLVD  POTTSVILLE PA 17901,40.68767,-76.19699
,W NORWEGIAN & 20TH ST  POTTSVILLE PA 17901,40.67613,-76.21916
,2300 MAHANTONGO ST  POTTSVILLE PA 17901,40.67137,-76.22845
,340 HAVEN ST  SCHUYLKILL HAVEN PA 17972,40.63612,-76.17434
,340 E HAVEN ST  SCHUYLKILL HAVEN PA 17972,40.63612,-76.17434
,15 EARL STOYER DR  SCHUYLKILL HAVEN PA 17972,40.61481,-76.2164
,3089 FAIR RD  AUBURN PA 17922,40.59184,-76.11587
,400 E GRAND AVE  TOWER CITY PA 17980,40.58881,-76.55384
,19 N PINE ST  TREMONT PA 17981,40.62908,-76.3907
,166 MOLLEYTOWN  PINE GROVE PA 17963,40.54842,-76.38468
,11 CHURCH RD  KLINGERSTOWN PA 17941,40.68115,-76.6269
,225 FRANTZ RD  PINE GROVE PA 17963,40.5744,-76.33553
,RTE 443 & FRONT ST  FRIEDENSBURG PA 17933,40.60294,-76.24023
,88 FIREHOUSE RD  SUMMIT STATION PA 17979,40.56201,-76.20697
