name,address,lat,lon
,1021 FOREST HILLS DR  SALIX PA 15952,40.30347,-78.76183
,180 PITCAIRN AVE  DUNLO PA 15930,40.29384,-78.72313
,1086 MOUNT AIRY DR  ELTON PA 15934,40.28084,-78.80466
,258 MT HOPE RD  SOUTH FORK PA ---,40.34268,-78.80605
,FIRE COMPANY BLDG.  ST MICHAEL PA 15951,40.33476,-78.76729
,107 STORM RD  LORETTO PA 15940,40.54974,-78.62641
,PINE & MAIN ST  ASHVILLE PA 16613,40.55836,-78.54904
,930 LUTHER RD  NICKTOWN PA 15762,40.61516,-78.80831
,138 DUMAN RD  BELSANO PA 15922,40.52067,-78.87031
,350 HABICHT ST  JOHNSTOWN PA 15906,40.33455,-78.93694
,499 MANOR DR  EBENSBURG PA 15931,40.48968,-78.70011
,79 REESE AVE  COLVER PA 15927,40.54473,-78.78629
,547 CAMBRIA AVE  REVLOC PA 15948,40.49198,-78.76422
,140 E CARROLL ST  CARROLLTOWN PA ---,40.60333,-78.70718
,PORTAGE ST.  CASSANDRA PA 15925,40.40652,-78.63836
,110 ECONOMY ST  CHEST SPRINGS PA ---,40.57734,-78.60926
,1981 ST LAWRENCE RD  PATTON PA 16668,40.69782,-78.6241
,803 ST AUGUSTINE RD  DYSART PA 16636,40.61295,-78.57753
,79 VOGEL ST  JOHNSTOWN PA 15902,40.32311,-78.89792
,1421 CLAPBOARD RUN RD  JOHNSTOWN PA 15904,40.34888,-78.83318
,ASHCROFT AVE  CRESSON PA 16630,40.46113,-78.58411
,7911 WM PENN HWY  CRESSON PA 16630,40.39669,-79.45411
,7911 WM PENN HWY  CRESSON PA ---,40.39669,-79.45411
,1635 NEW GERMANY RD  SUMMERHILL PA 15958,40.41181,-78.75564
,1654 RAILROAD ST  SUMMERHILL PA 15958,40.37531,-78.74984
,116 ROCK AVE  JOHNSTOWN PA 15902,40.31936,-78.90115
,730 BLOOM ST  JOHNSTOWN PA 15902,40.30709,-78.9042
,145 MCMULDREN ST  DYSART PA 16636,40.60404,-78.54318
,1821 PLANK RD  CARROLLTOWN PA 15722,40.58769,-78.71296
,3350 BRICK RD  CARROLLTOWN PA 15722,40.58206,-78.71064
,343 1ST ST  CONEMAUGH PA 15909,40.34659,-78.88597
,403 DONRUTH LN  JOHNSTOWN PA 15909,40.37149,-78.87785
,300 PRAVE ST  EBENSBURG PA 15931,40.48164,-78.7284
,217 E HIGH ST  EBENSBURG PA 15931,40.48547,-78.72295
,728 BEN FRANKLIN HWY  EBENSBURG PA 15931,40.48555,-78.7362
,107 MT CARMEL DR  SOUTH FORK PA 15956,40.37049,-78.77679
,264 HAIDA AVE STE E1  HASTINGS PA 16646,40.65958,-78.7068
,618 WESTINGHOUSE AVE  JOHNSTOWN PA 15905,40.28897,-78.9143
,1125 MAIN ST  JOHNSTOWN PA 15909,40.34305,-78.88422
,210 ST THOMAS ST  GALLITZIN PA 16641,40.48354,-78.55477
,206 WALNUT ST  COUPON PA 16629,40.53439,-78.51214
,721 E OAKMONT BLVD  JOHNSTOWN PA 15904,40.29212,-78.86747
,330 TEABERRY LN  JOHNSTOWN PA 15904,40.29044,-78.88201
,BEAVER ST  HASTINGS PA ---,40.66334,-78.71405
,541 PIKE RD  JOHNSTOWN PA 15909,40.44406,-78.83841
,VINCO  JOHNSTOWN PA 15909,40.40507,-78.85558
,3513 WILLIAM PENN AVE  JOHNSTOWN PA 15909,40.43699,-78.85048
,608 MAIN ST  LILLY PA 15938,40.42682,-78.61935
,608 MAIN ST  LILLY PA ---,40.42682,-78.61935
,503 GREEN VALLEY ST  JOHNSTOWN PA 15902,40.29323,-78.89671
,187 ST. MARY'S ST  LORETTO PA ---,40.50623,-78.63418
,536 DECKER AVE  JOHNSTOWN PA 15906,40.35479,-78.95364
,128 J ST  JOHNSTOWN PA 15906,40.3416,-78.94877
,688 BENSHOFF HILL RD  JOHNSTOWN PA 15906,40.3596,-78.92339
,190 KEYSTONE DR.  LORETTO PA 15940,40.46629,-78.64967
,998 LLOYD ST  NANTY GLO PA 15943,40.47119,-78.83727
,CHESTNUT ST  NANTY GLO PA 15943,40.47171,-78.83416
,805 MAPLE AVE  NORTHERN CAMBRIA PA 15714,40.66111,-78.77928
,813 35TH ST  NORTHERN CAMBRIA PA 15714,40.65572,-78.77948
,1700 KENNEDY AVE  NORTHERN CAMBRIA PA 15714,40.64024,-78.77126
,MAGEE AVE.  PATTON PA 16668,40.63391,-78.64948
,977 ORANGE AVE  PORTAGE PA 15946,40.39401,-78.67387
,500 FARREN AVE  PORTAGE PA 15946,40.38849,-78.671
,704 MAIN ST  PORTAGE PA 15946,40.38613,-78.67327
,4109 PORTAGE ST  PORTAGE PA 15946,40.40401,-78.6569
,749 EXECUTIVE DR  FALLENTIMBER PA 16639,40.68873,-78.46716
,107 COLDREN ST  JOHNSTOWN PA 15904,40.28832,-78.88457
,1000 SCALP AVE  JOHNSTOWN PA ---,40.28349,-78.86493
,176 MT AIRY DR  JOHNSTOWN PA 15904,40.30333,-78.82721
,1201 ERICKSON DR  JOHNSTOWN PA 15904,40.27468,-78.87475
,322 SCHOOLHOUSE RD  JOHNSTOWN PA 15904,40.26849,-78.83979
,189 HOSTETLER RD  JOHNSTOWN PA 15904,40.27496,-78.87554
,445 SCHOOLHOUSE RD  JOHNSTOWN PA 15904,40.27126,-78.83038
,305 PENNSYLVANIA AVE  CRESSON PA 16630,40.46683,-78.59205
,422 MAIN ST  WINDBER PA ---,40.24924,-78.84793
,MAIN ST  SOUTH FORK PA 15956,40.3623,-78.78904
,148 WONDER ST  JOHNSTOWN PA 15905,40.30802,-78.94234
,334 SOUTHMONT BLVD  JOHNSTOWN PA 15905,40.30774,-78.93004
,1741 BEDFORD ST  JOHNSTOWN PA 15902,40.30174,-78.8873
,615 LIBERTY ST  JOHNSTOWN PA 15902,40.28379,-78.92161
,1504 BEDFORD ST  JOHNSTOWN PA ---,40.30353,-78.89103
,1504 BEDFORD ST  JOHNSTOWN PA 15902,40.30353,-78.89103
,524 MAIN ST  SUMMERHILL PA 15958,40.37531,-78.76018
,2095 FIELDSTONE AVE  SUMMERHILL PA 15958,40.35979,-78.71064
,506 JEFFERSON AVE  BEAVERDALE PA 15921,40.31981,-78.69784
,1935 MOSS CREEK RD  NORTHERN CAMBRIA PA 15714,40.67928,-78.80804
,508 HILLCREST ST  NORTHERN CAMBRIA PA 15714,40.65974,-78.76048
,808 PORTAGE ST  GALLITZIN PA ---,40.47621,-78.5423
,115 JEFFREY DR  JOHNSTOWN PA 15905,40.31783,-78.97994
,320 WARREN ST  JOHNSTOWN PA ---,40.29427,-78.9336
,111 ALBERTA AVE  JOHNSTOWN PA 15905,40.29812,-78.94111
,110 SUNRAY DR  JOHNSTOWN PA 15905,40.30378,-78.94816
,250 MAIN ST  VINTONDALE PA 15961,40.47835,-78.91255
,93 JONES ST  LILLY PA 15938,40.42636,-78.60759
,116 DUNSMORE RD  ST BENEDICT PA 15773,40.62796,-78.72889
,142 TOWNSHIP DR  BAKERTON PA ---,40.60531,-78.75491
,1000 EDGEHILL DR  JOHNSTOWN PA 15905,40.32901,-78.92874
,2301 SUNSHINE AVE  JOHNSTOWN PA 15905,40.3132,-78.96758
,1217 MENOHER BLVD  JOHNSTOWN PA 15905,40.31627,-78.9475
,712 COOPER AVE  JOHNSTOWN PA 15906,40.369,-78.9331
,1800 BEAVER VALLEY RD  FLINTON PA 16640,40.71178,-78.53805
,118 CHURCH ST  WILMORE PA 15762,40.38787,-78.71848
,326 NAPOLEON ST  JOHNSTOWN PA 15901,40.32295,-78.923
,531 SOMERSET ST  JOHNSTOWN PA 15901,40.32122,-78.91697
,220 MESSENGER ST  JOHNSTOWN PA 15902,40.30893,-78.91051
,326 NAPOLEON ST  JOHNSTOWN PA 15905,40.32295,-78.923
,112 SELL ST  JOHNSTOWN PA 15905,40.29845,-78.92569
,110 ADAMS ST  JOHNSTOWN PA 15901,40.32506,-78.91306
,IHMSEN & CROUSE AVE  JOHNSTOWN PA 15901,40.33402,-78.91167
,415 POWER ST  JOHNSTOWN PA 15906,40.34073,-78.92702
,500 PARK AVE  JOHNSTOWN PA 15902,40.29836,-78.90964
,609 PARK AVE  JOHNSTOWN PA 15902,40.29626,-78.91172
,1068 BEDFORD ST  JOHNSTOWN PA 15902,40.30982,-78.89571
,531 WOODLAND ST  JOHNSTOWN PA 15902,40.29534,-78.90347
,134 BARRON AVE  JOHNSTOWN PA 15906,40.34408,-78.94411
,159 CHANDLER AVE  JOHNSTOWN PA 15906,40.34631,-78.94493
,300 GARFIELD ST  JOHNSTOWN PA 15906,40.34978,-78.9461
,307 GARFIELD ST  JOHNSTOWN PA 15906,40.35017,-78.94649
,R. 120 KUNKLE ST  JOHNSTOWN PA 15906,40.3534,-78.93716
