name,address,lat,lon
,2900 S PIKE AVE  ALLENTOWN PA 18103,40.56625,-75.45024
,6735 CETRONIA RD  ALLENTOWN PA 18106,40.56357,-75.59073
,1988 SCHADT AVE  WHITEHALL PA 18052,40.63739,-75.50683
,6701 PIONEER DR  MACUNGIE PA 18062,40.52269,-75.57211
,3801 BROOKSIDE RD  MACUNGIE PA 18062,40.51767,-75.54268
,2623 BROOKSIDE RD  MACUNGIE PA 18062,40.53521,-75.55124
,135 QUARRY RD  ALBURTIS PA 18011,40.51417,-75.59756
,5314 EGYPT RD  LAURYS STATION PA 18059,40.71733,-75.53231
,2375 LEVANS RD  COPLAY PA 18036,40.67745,-75.54955
,8227 HAMILTON BLVD  BREINIGSVILLE PA 18031,40.54216,-75.61813
,150 INDEPENDENT RD  BREINIGSVILLE PA 18031,40.54731,-75.67567
,5992 PA ROUTE 378  CENTER VALLEY PA 18034,40.53167,-75.39637
,5936 LOCUST VALLEY RD  COOPERSBURG PA 18036,40.49463,-75.40814
,535 W EMAUS AVE  ALLENTOWN PA 18103,40.57687,-75.457
,137 N 02ND ST  ALLENTOWN PA 18102,40.60738,-75.47817
,31 S PENN ST  ALLENTOWN PA 18101,40.60284,-75.4663
,17 S 7TH ST  ALLENTOWN PA 18101,40.60216,-75.47079
,829 W TURNER ST  ALLENTOWN PA 18102,40.60473,-75.47625
,417 N 07TH ST  ALLENTOWN PA 18102,40.60853,-75.4744
,521 N 02ND ST  ALLENTOWN PA 18102,40.61329,-75.46282
,1245 HAMILTON ST  ALLENTOWN PA 18102,40.59926,-75.48379
,417 N 7TH ST  ALLENTOWN PA 18102,40.60871,-75.47451
,1339 W ALLEN ST  ALLENTOWN PA 18102,40.60755,-75.48886
,302 N 17TH ST  ALLENTOWN PA 18104,40.60136,-75.49625
,1201 SUMNER AVE  ALLENTOWN PA 18102,40.61202,-75.48806
,617 N 10TH ST  ALLENTOWN PA 18102,40.60928,-75.4816
,17 S 07TH ST  ALLENTOWN PA 18101,40.60188,-75.47077
,457 W ALLEN ST  ALLENTOWN PA 18102,40.61187,-75.47166
,1547 CHEW ST  ALLENTOWN PA 18102,40.60165,-75.49199
,2400 CHEW ST  ALLENTOWN PA 18104,40.59557,-75.50984
,802 N 19TH ST  ALLENTOWN PA 18104,40.60676,-75.50227
,2135 TILGHMAN ST  ALLENTOWN PA 18104,40.60371,-75.50678
,1221 S FRONT ST  ALLENTOWN PA 18103,40.5898,-75.45279
,1708 CORONADO ST  ALLENTOWN PA 18103,40.57662,-75.48476
,1818 VULTEE ST  ALLENTOWN PA 18103,40.57417,-75.48486
,1201 CUMBERLAND ST  ALLENTOWN PA 18103,40.58735,-75.47841
,1210 HAMILTON ST  ALLENTOWN PA 18102,40.59894,-75.48208
,1633 ELM ST  ALLENTOWN PA 18102,40.59233,-75.48934
,1740 TURNER ST  ALLENTOWN PA 18104,40.5989,-75.49475
,41 S CARLISLE ST  ALLENTOWN PA 18109,40.60828,-75.44738
,614 S CARLISLE ST  ALLENTOWN PA 18109,40.60193,-75.44512
,1140 E CLAIR ST  ALLENTOWN PA 18109,40.61743,-75.43711
,1933 HANOVER AVE  ALLENTOWN PA 18109,40.62217,-75.42605
,815 N IRVING ST  ALLENTOWN PA 18109,40.62131,-75.44198
,3231 TILGHMAN ST  ALLENTOWN PA 18104,40.59821,-75.52966
,1939 UNION ST  ALLENTOWN PA 18104,40.59323,-75.49572
,140 S OTT ST  ALLENTOWN PA 18104,40.58891,-75.51159
,2101 MACK BLVD  ALLENTOWN PA 18103,40.57435,-75.47011
,2336 S 09TH ST  ALLENTOWN PA 18103,40.58656,-75.5034
,709 W EMAUS AVE  ALLENTOWN PA 18103,40.57523,-75.46161
,402 THIRD AVE  BETHLEHEM PA 18018,40.61968,-75.38781
,600 W MARKET ST  BETHLEHEM PA 18018,40.62107,-75.39136
,08TH AVE  BETHLEHEM PA 18018,40.62389,-75.39368
,1705 W BROAD ST  BETHLEHEM PA 18018,40.62252,-75.40644
,1002 W UNION BLVD  BETHLEHEM PA 18018,40.62603,-75.39577
,1414 PENNSYLVANIA AVE  BETHLEHEM PA 18018,40.63334,-75.42055
,1002 E UNION BLVD  BETHLEHEM PA 18018,40.62496,-75.36233
,200 W 02ND ST  ALBURTIS PA 18011,40.51093,-75.60297
,330 02ND ST  CATASAUQUA PA 18032,40.65277,-75.47198
,604 04TH ST  CATASAUQUA PA 18032,40.65675,-75.47306
,5 MAIN ST  COOPERSBURG PA 18036,40.51146,-75.39054
,18 S 03RD ST  COPLAY PA 18037,40.67163,-75.49193
,165 CHERRY ST  COPLAY PA 18037,40.67396,-75.49669
,44 KLINES LN  EMMAUS PA 18049,40.53968,-75.48549
,139 N 04TH ST  EMMAUS PA 18049,40.53735,-75.4931
,418 ELM ST  EMMAUS PA 18049,40.53776,-75.49493
,3002 N 2ND ST  EMMAUS PA 18049,40.54427,-75.50196
,1205 BROADWAY  BETHLEHEM PA 18015,40.60156,-75.39618
,950 CHEROKEE ST  BETHLEHEM PA 18015,40.60426,-75.39181
,POPLAR ST  MACUNGIE PA 18062,40.5139,-75.55192
,649 W WASHINGTON ST  SLATINGTON PA 18080,40.7463,-75.61613
,110 S WALNUT ST  SLATINGTON PA 18080,40.75072,-75.60587
,1001 POSTAL RD  ALLENTOWN PA 18109,40.64556,-75.43625
,6011 MEMORIAL RD  GERMANSVILLE PA 18053,40.70182,-75.70523
,5047 HAMILTON BLVD  ALLENTOWN PA 18106,40.56596,-75.55546
,1208 BROOKSIDE RD  ALLENTOWN PA 18106,40.55943,-75.55428
,WHITEMARSH PLACE  MACUNGIE PA 18062,40.53031,-75.55494
,6667 LOWER MACUNGIE RD  TREXLERTOWN PA 18087,40.55062,-75.58475
,3400 BROOKSIDE RD  MACUNGIE PA 18062,40.5245,-75.5472
,1601 LIMEPORT PIKE  LIMEPORT PA 18060,40.50416,-75.44517
,7000 HERBER RD  NEW TRIPOLI PA 18066,40.64577,-75.68394
,7242 DECATUR ST  NEW TRIPOLI PA 18066,40.68059,-75.75453
,5129 SCHOCHARY RD  LYNNVILLE PA 18066,40.63979,-75.74871
,7911 KINGS HWY  NEW TRIPOLI PA 18066,40.67774,-75.80051
,4550 OLD PACKHOUSE RD  SCHNECKSVILLE PA 18078,40.65864,-75.60288
,2375 LEVANS RD  COPLAY PA 18037,40.67745,-75.54955
,1707 CHURCH RD  ALLENTOWN PA 18103,40.5883,-75.41292
,2319 S CEDAR CREST BLVD  ALLENTOWN PA 18103,40.55034,-75.51437
,1151 CEDAR CREST BLVD  ALLENTOWN PA 18103,40.56987,-75.51738
,2613 W SOUTH ST  ALLENTOWN PA 18104,40.58556,-75.50907
,2500 FOCHT AVE  ALLENTOWN PA 18104,40.62424,-75.52398
,1808 N 19TH ST  ALLENTOWN PA 18104,40.62281,-75.51065
,18 S SCENIC ST  ALLENTOWN PA 18104,40.5829,-75.53955
,2901 HAMILTON BLVD  ALLENTOWN PA 18104,40.58502,-75.51663
,4601 TILGHMAN ST  ALLENTOWN PA 18104,40.58993,-75.55865
,3436 WINCHESTER RD  ALLENTOWN PA 18104,40.60936,-75.53686
,3436 WINDCHESTER RD  ALLENTOWN PA 18104,40.60936,-75.53686
,1837 CHURCH RD  ALLENTOWN PA 18104,40.61429,-75.56654
,6612 SNOWDRIFT RD  ALLENTOWN PA 18106,40.59292,-75.60756
,7850 LIME ST  FOGELSVILLE PA 18051,40.58465,-75.63104
,8466 MASON CT  BREINIGSVILLE PA 18031,40.53635,-75.61702
,3461 CEDAR CREST BLVD  EMMAUS PA 18049,40.53371,-75.51108
,"5901 KINGS HWY S,  ZIONSVILLE PA 18092",40.48664,-75.52064
,4445 W HOPEWELL RD  CENTER VALLEY PA 18034,40.53826,-75.42321
,5500 CAMP MEETING RD  CENTER VALLEY PA 18034,40.53494,-75.40386
,6782 N MAIN ST  COOPERSBURG PA 18036,40.51746,-75.39119
,7748 PENN ST  SLATINGTON PA 18080,40.74205,-75.63617
,3158 FRIEDENS RD  SLATINGTON PA 18080,40.73412,-75.61922
,3922 MAIN ST  SLATEDALE PA 18079,40.74306,-75.65368
,7974 CLAUSSVILLE RD  FOGELSVILLE PA 18051,40.61093,-75.66604
,1419 OVERLOOK RD  WHITEHALL PA 18052,40.62123,-75.49496
,835 THIRD ST  WHITEHALL PA 18052,40.63464,-75.47039
,JEFFERSON ST  WHITEHALL PA 18052,40.63824,-75.47143
,PINE ST  WHITEHALL PA 18052,40.64738,-75.48094
,1975 SCHADT AVE  WHITEHALL PA 18052,40.64309,-75.5052
,3005 S FRONT ST  WHITEHALL PA 18052,40.66079,-75.4884
,2301 PINE ST  WHITEHALL PA 18052,40.64737,-75.48217
,4099 KUHN LN  WHITEHALL PA 18052,40.68281,-75.52351
,5150 02ND ST  WHITEHALL PA 18052,40.69028,-75.50881
