name,address,lat,lon
,542 W OTTERMAN ST  GREENSBURG PA 15601,40.30299,-79.55477
,1800 7TH STREET RD  NEW KENSINGTN PA 15068,40.56306,-79.74446
,262 FRANKLIN AVE  VANDERGRIFT PA 15690,40.6004,-79.56271
,278 FRANKLIN ST  VANDERGRIFT PA 15690,40.60012,-79.56346
,303 FRANKLIN AVE  VANDERGRIFT PA 15690,40.59974,-79.56443
,4350 RT 66  APOLLO PA 15613,40.5414,-79.59476
,190 PINE RUN CHURCH RD  APOLLO PA 15613,40.54732,-79.59717
,1091 POKE RUN CHURCH RD  APOLLO PA 15613,40.4935,-79.59717
,285 PINE RUN CHURCH RD  APOLLO PA 15613,40.54805,-79.60376
,1015 PLAZAK ST  W LEECHBURG PA 15656,40.63388,-79.62243
,302 VINE ST  WEST NEWTON PA 15089,40.20804,-79.76745
,507 PITTSBURGH ST  WEST NEWTON PA 15089,40.21084,-79.78135
,4351 LATROBE ST  YOUNGSTOWN PA 15696,40.27826,-79.36589
,104 S SECOND ST  YOUNGWOOD PA 15697,40.23737,-79.57821
,136 1/2 E HILL DR  NEW KENSINGTN PA 15068,40.56951,-79.73563
,1800 SEVENTH ST RD  NEW KENSINGTON PA 15068,40.56306,-79.74446
,1125 LEISHMAN AVE  NEW KENSINGTN PA 15068,40.56915,-79.76291
,200 FREEPORT RD  NEW KENSINGTN PA 15068,40.5644,-79.76079
,556 CAMP AVE  NEW KENSINGTN PA 15068,40.58556,-79.75834
,110 ELMTREE RD  NEW KENSINGTN PA 15068,40.58555,-79.75212
,601 5TH AVE  NEW KENSINGTN PA 15068,40.604,-79.74849
,325 MAIN ST  NEW KENSINGTN PA 15068,40.55592,-79.76133
,703 STEVENSON BLVD  NEW KENSINGTON PA 15068,40.56814,-79.75471
,703 STEVENSON BLVD  NEW KENSINGTN PA 15068,40.56814,-79.75471
,108 S MAIN ST  NEW STANTON PA 15672,40.21873,-79.60766
,503 SPEER ST  N BELLE VERN PA 15012,40.1296,-79.86582
,503 SPEER ST  BELLE VERNON PA 15012,40.1296,-79.86582
,11605 DICKENS DR  IRWIN PA 15642,40.30529,-79.74249
,681 JACKSON AVE  N HUNTINGDON PA 15642,40.32983,-79.69191
,130 N THOMPSON LN  N HUNTINGDON PA 15642,40.31583,-79.67187
,1219 MORRIS AVE  N HUNTINGDON PA 15642,40.33698,-79.70204
,890 ROSE ST  N HUNTINGDON PA 15642,40.31629,-79.72233
,10583 FARVIEW DR  N HUNTINGDON PA 15642,40.30754,-79.72249
,11605 DICKENS DR  N HUNTINGDON PA 15642,40.30529,-79.74249
,1570 CLAY PIKE  N HUNTINGDON PA 15642,40.31017,-79.7289
,260 MAUS DR  N HUNTINGDON PA 15642,40.32876,-79.74275
,2800 COULTERVILLE RD  WHITE OAK PA 15131,40.31187,-79.78252
,860 COLONIAL MANOR RD  N HUNTINGDON PA 15642,40.33682,-79.76796
,544 CARUTHERS LN  IRWIN PA 15642,40.31465,-79.69954
,129 ROBBINS STATION RD  IRWIN PA 15642,40.32863,-79.73583
,11279 CENTER HIGHWAY  N HUNTINGDON PA 15642,40.33026,-79.73006
,129 ROBBINS STATION RD  N HUNTINGDON PA 15642,40.32863,-79.73583
,14335 RTE 30  N HUNTINGDON PA 15642,40.35297,-79.7672
,3380 NEHRIG HILL RD  ARDARA PA 15615,40.35995,-79.73845
,860 COLONIAL MANOR (LARGE BLDG) RD  N HUNTINGDON PA 15642,40.33682,-79.76796
,101 CARPENTER LANE  N HUNTINGDON PA 15642,40.34383,-79.76458
,21 SECOND ST  NORTH IRWIN PA 15642,40.33979,-79.71047
,171 THORNE ST  OKLAHOMA PA 15613,40.57824,-79.57286
,610 N RAILROAD ST  PENN PA 15675,40.3287,-79.64301
,1655 RIDGE RD  JEANNETTE PA 15644,40.34874,-79.59454
,6706 MELLON RD  EXPORT PA 15632,40.39579,-79.61563
,3381 RTE 130  HARRISON CITY PA 15636,40.35418,-79.65561
,1010 MILL ST  HARRISON CITY PA 15636,40.3534,-79.65042
,3100 BLOCKS RD  CLARIDGE PA 15623,40.36601,-79.61639
,2001 MUNICIPAL CT  HARRISON CITY PA 15636,40.35765,-79.65083
,326 RAYMALEY RD  HARRISON CITY PA 15636,40.37813,-79.65216
,3487 RTE 130  IRWIN PA 15642,40.36215,-79.66924
,123 MURRYSVILLE RD  TRAFFORD PA 15085,40.39239,-79.72038
,625 E PITTSBURGH ST  GREENSBURG PA 15601,40.30318,-79.53093
,900 HIGHLAND AVE  GREENSBURG PA 15601,40.29064,-79.54221
,194 DONOHOE RD  GREENSBURG PA 15601,40.30771,-79.50118
,1284 RTE 66  GREENSBURG PA 15601,41.01646,-79.33261
,108 WOODLAND RD  GREENSBURG PA 15601,40.28685,-79.53
,421 JUNIPER ST  GREENSBURG PA 15601,40.28927,-79.5592
,8 WEST HEMPFIELD DR  IRWIN PA 15642,40.30134,-79.67797
,455 BOVARD LUXOR RD  LUXOR PA 15662,40.33313,-79.4759
,189 FRONT ST  HANNASTOWN PA 15635,40.35336,-79.49511
,2 WASHINGTON ST  BOVARD PA 15619,40.31542,-79.50486
,495 EDNA RD  ADAMSBURG PA 15611,40.30712,-79.65535
,4497 ROUTE 136  GREENSBURG PA 15601,40.28892,-79.58712
,22 WESTVIEW DR  GREENSBURG PA 15601,40.30326,-79.56469
,2528 NEWARK ST  GRAPEVILLE PA 15634,40.32459,-79.6053
,1966 BROADWAY ST  GREENSBURG PA 15601,40.26847,-79.55685
,315 CORT ST  JEANNETTE PA 15644,40.31645,-79.62251
,42 MILLERSDALE RD  JEANNETTE PA 15644,40.30807,-79.6142
,671 BALTZER MEYER PIKE  GREENSBURG PA 15601,40.28229,-79.59285
,612 S CENTER AVE  HUNKER PA 15639,40.20907,-79.60593
,820 CARBON RD  GREENSBURG PA 15601,40.29217,-79.55849
,145 PAVILION RD  YOUNGWOOD PA 15697,40.23436,-79.56473
,501 FAIRFIELD DR  GREENSBURG PA 15601,40.27633,-79.50646
,1228 BRINKERTON RD  GREENSBURG PA 156010,40.27273,-79.52915
,228 PLEASANT VALLEY RD  JEANNETTE PA 15644,40.32464,-79.57508
,372 SLATE RUN RD  GREENSBURG PA 15601,40.2863,-79.51366
,407 CONSTITUTION AVE  HUNKER PA 15639,40.20441,-79.61665
,715 MAIN ST  HYDE PARK PA 15641,40.63239,-79.58784
,100 WESTERN AVE  IRWIN PA 15642,40.33423,-79.71148
,1 FIRST ST  IRWIN PA 15642,40.33435,-79.71218
,617 MAIN ST  IRWIN PA 15642,40.32888,-79.71021
,101 CARUTHERS LN  IRWIN PA 15642,40.32121,-79.69877
,780 BRUSH HILL RD  IRWIN PA 15642,40.32737,-79.68744
,401 S 4TH ST  JEANNETTE PA 15644,40.3253,-79.61972
,131 N SECOND ST  JEANNETTE PA 15644,40.32923,-79.61332
,899 COLLEGE AVE  JEANNETTE PA 15644,40.33423,-79.61946
,11TH ST  JEANNETTE PA 15644,40.32699,-79.62681
,1015 LOWRY AVE  JEANNETTE PA 15644,40.3159,-79.619
,610 WESTMORELAND AVE  JEANNETTE PA 15644,40.31845,-79.61101
,437 GUY ST  JEANNETTE PA 15644,40.33363,-79.60757
,390 OAK ST  LATROBE PA 15650,40.32095,-79.38743
,440 MAIN ST  LATROBE PA 15650,40.31841,-79.38136
,1112 LIGONIER ST  LATROBE PA 15650,40.31506,-79.38259
,20 CEDAR ST  LATROBE PA 15650,40.30786,-79.37545
,2415 LAVEEN ST  LATROBE PA 15650,40.30348,-79.37599
,316 LLOYD AVE  LATROBE PA 15650,40.3118,-79.39177
,39 WALNUT RD  LAUGHLINTOWN PA 15655,40.21318,-79.18483
,1280 DARLINGTON RD  LIGONIER PA 15658,40.2512,-79.2907
,122 CENTER ST  LAUGHLINTOWN PA 15655,40.21227,-79.19438
,1 MUNICIPAL PARK DR  LIGONIER PA 15658,40.25969,-79.20555
,628 WEAVER MILL RD  RECTOR PA 15677,40.19452,-79.24263
,44 FIREHALL RD  LIGONIER PA 15658,40.25274,-79.1732
,379 WILPEN RD  LIGONIER PA 15658,40.28127,-79.19546
,3400 GARVER FERRY RD  LOWER BURRELL PA 15068,40.60349,-79.70936
,273 CHESTER DR  LOWER BURRELL PA 15068,40.58793,-79.73637
,2800 BETHEL ST  LOWER BURRELL PA 15068,40.58819,-79.72842
,150 ALDER ST  LOWER BURRELL PA 15068,40.58489,-79.71448
,499 REIMER ST  LOWER BURRELL PA 15068,40.58791,-79.70611
,915 NEW YORK AVE  LOWER BURRELL PA 15068,40.55092,-79.74275
,220 5 TH ST  SALTSBURG PA 15681,40.49044,-79.4646
,275 COUNTY RD  SLICKVILLE PA 15684,40.46224,-79.50848
,21 FIREHALL LN  MADISON PA 15663,40.2489,-79.67996
,44 MAIN ST  MANOR PA 15665,40.33294,-79.66859
,100 PARENTE BLVD  MONESSEN PA 15062,40.15299,-79.87844
,10 E SCHOONMAKER AVE  MONESSEN PA 15062,40.15945,-79.87768
,331 THIRD ST  MONESSEN PA 15062,40.15966,-79.88328
,1501 MARION AVE  MONESSEN PA 15062,40.14864,-79.88765
,125 PARK MANOR DR  MONESSEN PA 15062,40.14803,-79.87515
,848 DONNER AVE  MONESSEN PA 15062,40.16198,-79.8908
,629 BRADDOCK AVE  MONESSEN PA 15062,40.15843,-79.89001
,1000 HIGHLAND AVE  MONESSEN PA 15062,40.15879,-79.89584
,1275 ROSTRAVER ST  MONESSEN PA 15062,40.15148,-79.88783
,1295 GRAND BLVD  MONESSEN PA 15062,40.14977,-79.89014
,1245 STATE RD  MONESSEN PA 15062,40.13957,-79.86991
,936 W MAIN ST  MT PLEASANT PA 15666,40.15334,-79.55044
,100 S CHURCH ST  MT PLEASANT PA 15666,40.14969,-79.54595
,101 CENTER & WASHINGTON ST  MT PLEASANT PA 15666,40.14908,-79.54481
,481 BRIDGEPORT RD  MT PLEASANT PA 15666,40.1298,-79.53354
,494 E MAIN ST  MT PLEASANT PA 15666,40.14434,-79.5055
,1252 BOYER RD  SOUTHWEST PA 15685,40.19907,-79.52043
,941 LAURELVILLE LN  MT PLEASANT PA 15666,40.15121,-79.47194
,208 POKER RD  MT PLEASANT PA 15666,40.20046,-79.46648
,2992 RTE 31  ACME PA 15610,40.12534,-79.42683
,171 COUNTY PARK RD  MT PLEASANT PA 15666,40.20799,-79.4555
,271 STATE ST  MT PLEASANT PA 15666,40.17527,-79.52536
,2325 MT PLEASANT RD  NORVELT PA 15674,40.20885,-79.49719
,3240 SCHOOL RD  MURRYSVILLE PA 15668,40.43076,-79.66407
,3916 OLD WILLIAM PENN HWY  MURRYSVILLE PA 15668,40.42848,-79.69647
,4100 SARDIS RD  MURRYSVILLE PA 15668,40.45482,-79.66788
,3091 CARSON ST  MURRYSVILLE PA 15668,40.42539,-79.69415
,4130 OLD WM PENN HWY  MURRYSVILLE PA 15668,40.42884,-79.6891
,5330 LOGAN'S FERRY RD  MURRYSVILLE PA 15668,40.48808,-79.6955
,207 W MAIN ST  N ALEXANDRIA PA 15670,40.39638,-79.42489
,177 13 TH ST  NEW FLORENCE PA 15944,40.37945,-79.07611
,785 FOURTH AVE  NEW KENSINGTN PA 15068,40.56386,-79.76507
,1045 VICTORIA AVE  NEW KENSINGTN PA 15068,40.56846,-79.76143
,514 HICKORY DR  WEST NEWTON PA 15089,40.22263,-79.77227
,201 MUNICIPAL DR  BELLE VERNON PA 15012,40.16525,-79.77376
,270 CREST AVE  BELLE VERNON PA 15012,40.17923,-79.81448
,1268 FELLS CHURCH RD  BELLE VERNON PA 15012,40.17826,-79.82315
,203 JOHNSON ST  BELLE VERNON PA 15012,40.13734,-79.85554
,201 JOHNSON ST  BELLE VERNON PA 15012,40.13718,-79.85554
,311 RIVERSIDE DR  VAN METER PA 15479,40.1377,-79.74565
,"956 RTE 906 W,  WEBSTER PA 15087",40.17862,-79.84873
,136 FENNELTOWN RD  NEW ALEXANDRIA PA 15670,40.4007,-79.50196
,306 ST JAMES LN  N ALEXANDRIA PA 15670,40.39376,-79.43868
,306 ST JAMES LN  NEW ALEXANDRIA PA 15670,40.39376,-79.43868
,718 CLOVERLEAF ESTATE COMM BLDG  DELMONT PA 15626,40.3955,-79.57916
,128 MAIN ST  SLICKVILLE PA 15684,40.46043,-79.5206
,332 FIRE STATION RD  FORBES ROAD PA 15633,40.35462,-79.52258
,10 MT PLEASANT RD  SCOTTDALE PA 15683,40.10401,-79.58453
,400 JENNINGS AVE  SCOTTDALE PA 15683,40.10734,-79.59748
,203 MARKET ST  SCOTTDALE PA 15683,40.1004,-79.58922
,1218 SEVENTH ST  SEWARD PA 15954,40.41486,-79.02491
,120 ST. EDWARDS LN  HERMINIE PA 15637,40.25737,-79.70988
,22 CHERRY ST  LOWBER PA 15660,40.24497,-79.77305
,2567 MARS HILL RD  RILLTON PA 15678,40.28601,-79.72715
,261 FIRE HALL AVE  HUTCHINSON PA 15640,40.22546,-79.7296
,101 SEWICKLEY AVE  HERMINIE PA 15637,40.26369,-79.71705
,109 GRACE LN  RUFFSDALE PA 15679,40.23078,-79.6813
,615 CENTER ST  SMITHTON PA 15479,40.15396,-79.74221
,1515 POPLAR ST  S GREENSBURG PA 15601,40.2769,-79.54675
,569 BARRON RUN ROAD  SMITHTON PA 15479,40.15168,-79.69994
,100 MAIN ST  JACOBS CREEK PA 15448,40.12878,-79.74005
,157 FITZ HENRY RD  SMITHTON PA 15479,40.17128,-79.7355
,90 SUPERVISOR DR  WEST NEWTON PA 15089,40.19412,-79.73188
,2302 THIRD ST  WYANO PA 15695,40.19758,-79.69522
,124 HIGHWAY ST  YUKON PA 15698,40.21394,-79.68193
,554 STANTON ST  SW GREENSBURG PA 15601,40.29536,-79.55152
,401 GUTHRIE ST  GREENSBURG PA 15601,40.29352,-79.54695
,550 SEWARD ST  SEWARD PA 15954,40.40973,-79.01469
,100 OSBORNE ST  NEW FLORENCE PA 15944,40.37705,-79.07095
,320 MUNICIPAL AVE  SUTERSVILLE PA 15083,40.23657,-79.80284
,517 HOMEWOOD AVE  TRAFFORD PA 15085,40.38533,-79.75556
,131 HIGH SCHOOL RD  LATROBE PA 15650,40.27897,-79.3768
,154 BEATTY COUNTY RD  LATROBE PA 15650,40.29506,-79.41136
,398 CEMETERY RD  GREENSBURG PA 15601,40.35955,-79.47143
,1523 LOIS DR  GREENSBURG PA 15601,40.28848,-79.44274
,300 MONASTERY DR  LATROBE PA 15650,40.29891,-79.39949
,219 TWIN LAKES RD  LATROBE PA 15650,40.32219,-79.47215
,243 DICKENS ST  LATROBE PA 15650,40.31284,-79.40275
,1 MARGUERITE ST  LATROBE PA 15650,40.26643,-79.45701
,214 MUTUAL FIREHALL RD  GREENSBURG PA 15601,40.23733,-79.49695
,135 JOHN GEORGE ST  PLSNT UNITY PA 15676,40.2432,-79.45602
,1325 MISSION RD  LATROBE PA 15650,40.28915,-79.38831
,155 SMOLLECK ST  WHITNEY PA 15693,40.25156,-79.40506
,3735 7TH STREET RD  NEW KENSINGTON PA 15068,40.55428,-79.68984
,136 COMMUNITY BLDG RD  LEECHBURG PA 15656,40.6095,-79.61028
,1900 RTE 356  LEECHBURG PA 15656,40.65578,-79.66753
,136 COMMUNITY BUILDING RD  LEECHBURG PA 15656,40.6095,-79.61028
,470 BEVERLY ST  APOLLO PA 15613,40.57218,-79.64528
,250 HYDE PARK RD  VANDERGRIFT PA 15690,40.60326,-79.60566
,1632 HORNE BLVD  ARNOLD PA 15068,40.57703,-79.76703
,1528 HORNE BLVD  ARNOLD PA 15068,40.5763,-79.76697
,1701 ALCOA DR  NEW KENSINGTN PA 15068,40.57762,-79.76102
,1801 LEISHMAN AVE  NEW KENSINGTON PA 15068,40.5785,-79.76465
,1739 VICTORIA AVE  ARNOLD PA 15068,40.57781,-79.76356
,2037 MAIN ST  ARONA PA 15617,40.26638,-79.65905
,210 FIFTH ST  AVONMORE PA 15618,40.52986,-79.46638
,2324 RTE 380  SALINA PA 15680,40.52086,-79.49956
,207 MAIN ST  SALINA PA 15680,40.52278,-79.50014
,414 SECOND ST  BOLIVAR PA 15923,40.39769,-79.15344
,1698 RTE 711  STAHLSTOWN PA 15687,40.15569,-79.32662
,305 FREEPORT ST  DELMONT PA 15626,40.42038,-79.57013
,200 W SECOND AVE  DERRY PA 15627,40.33153,-79.30108
,101 W FOURTH AVE  DERRY PA 15627,40.33116,-79.29748
,100 W SECOND ST  DERRY PA 15627,40.3343,-79.302
,9626 RTE 22 W  BLAIRSVILLE PA 15717,40.42829,-79.30635
,5321 RTE 982  DERRY PA 15627,40.32788,-79.32939
,969 PIZZA BARN RD  BLAIRSVILLE PA 15717,40.40903,-79.26584
,2541 THOMAS ST  LATROBE PA 15650,40.3015,-79.36366
,138 KINGSTON CLUB RD  LATROBE PA 15650,40.30543,-79.33696
,415 BRENNAN AVE  LOYALHANNA PA 15661,40.31905,-79.3556
,279 OLD RTE 217  DERRY PA 15627,40.37023,-79.2663
,5684 RTE 982  NEW DERRY PA 15671,40.34848,-79.31743
,982 N CHESTNUT ST EXT  DERRY PA 15627,40.33941,-79.31263
,415 BRENNAN AVE  LATROBE PA 15650,40.31905,-79.3556
,982 N CHESTNUT ST  DERRY PA 15627,40.33941,-79.31263
,8725 RTE 22  NEW ALEXANDRIA PA 15670,40.41123,-79.38673
,121 LONGVIEW DR  TORRANCE PA 15779,40.44751,-79.27201
,340 CHURCH ST  DONEGAL PA 15628,40.11278,-79.38076
,113 COMMUNITY CENTER LN  DONEGAL PA 15628,40.09863,-79.35716
,555 VALLEY KITCHEN DR  MT PLEASANT PA 15666,40.15261,-79.56219
,109 WEST OVERTON RD  SCOTTDALE PA 15683,40.11555,-79.56683
,842 RTE 31  RUFFSDALE PA 15679,40.17195,-79.61016
,428 RUFFSDALE-ALVERTON RD  ALVERTON PA 15612,40.14175,-79.58823
,120 FIRE DEPARTMENT RD  TARRS PA 15688,40.17045,-79.59283
,2358 RTE 981  ALVERTON PA 15612,40.13739,-79.59024
,400 MCKINLEY AVE  E VANDERGRIFT PA 15629,40.59853,-79.56241
,5778 KENNEDY AVE  EXPORT PA 15632,40.41904,-79.62761
,159 MIDGET CAMP RD  BOLIVAR PA 15923,40.34434,-79.13938
,104 MAPLE ST RTE 259  BOLIVAR PA 15923,40.39344,-79.15734
,1575 RTE 259  LIGONIER PA 15658,40.31879,-79.18371
,137 N PENNSYLANIA AVE  GREENSBURG PA 15601,40.30421,-79.54555
,309 N PENNA AVE  GREENSBURG PA 15601,40.30698,-79.54686
,110 VANNEAR AVE  GREENSBURG PA 15601,40.30173,-79.54726
,520 NEW ALEXANDRIA RD  GREENSBURG PA 15601,40.31001,-79.53426
,6 MCLAUGHLIN DR  GREENSBURG PA 15601,40.32336,-79.54433
,971 OLD SALEM RD  GREENSBURG PA 15601,40.32574,-79.5445
,416 S MAIN ST  GREENSBURG PA 15601,40.29896,-79.54344
,110 VANEER AVE  GREENSBURG PA 15601,40.30146,-79.53893
,304 ALEXANDER AVE  GREENSBURG PA 15601,40.29778,-79.55126
,112 N FAIRFIELD ST  LIGONIER PA 15658,40.24431,-79.23845
,4600 OLD WM PENN HWY  MURRYSVILLE PA 15668,40.42758,-79.67157
,5205 ROCKY HILL LN  MURRYSVILLE PA 15668,40.48499,-79.67165
